KUIPER-00027            
1 63740U 25088S   25349.91668981 -.00024913  00000+0 -32535-2 0  9994
2 63740  51.8996 106.0197 0003876 235.9517  88.4612 14.79895083  1767
KUIPER-00028            
1 63741U 25088T   25349.33110340  .00001948  00000+0  28618-3 0  9991
2 63741  51.8994 106.5666 0003709 255.0085 105.0467 14.79682139 35565
KUIPER-00029            
1 63742U 25088U   25349.01996038  .00000834  00000+0  13864-3 0  9993
2 63742  51.9007 105.7232 0008919 198.6633 161.4004 14.79934432 35076
KUIPER-00030            
1 63743U 25088V   25349.63700299  .00001497  00000+0  22538-3 0  9998
2 63743  51.9007 122.2188 0015858 147.9638 212.2292 14.79935322 35188
KUIPER-00031            
1 63744U 25088W   25349.71908618 -.00006746  00000+0 -85737-3 0  9997
2 63744  51.9009 107.9282 0004152 186.4236 173.6674 14.79894785 35106
KUIPER-00032            
1 63745U 25088X   25349.63459283  .00010268  00000+0  32102-3 0  9998
2 63745  51.8716  69.4243 0003889 186.4090 173.6846 15.33728885 36632
KUIPER-00033            
1 63746U 25088Y   25349.82198272  .00007817  00000+0  10537-2 0  9991
2 63746  51.8988 137.4598 0002915 240.1893 119.8779 14.79915178 35189
KUIPER-00034            
1 63747U 25088Z   25349.59210510 -.00009254  00000+0 -11875-2 0  9991
2 63747  51.9014 100.9900 0002038 181.9563 178.1392 14.79897158 35350
